STARLINK-35954          
1 66885U 25283H   25347.25002315 -.01213568  44056-3 -33328-2 0  9993
2 66885  53.1550  71.3698 0001008  82.2584 171.5271 15.93343674  2513
STARLINK-35900          
1 66886U 25283J   25347.25002315 -.01218235  44417-3 -33250-2 0  9995
2 66886  53.1551  71.3594 0000895  75.2160 183.4914 15.93461624  2517
STARLINK-35925          
1 66887U 25283K   25347.25002315 -.01218230  44439-3 -33159-2 0  9993
2 66887  53.1552  71.3553 0000968  76.1301 184.6780 15.93513295  2518
STARLINK-35919          
1 66888U 25283L   25347.25002315 -.01237657  45764-3 -33584-2 0  9992
2 66888  53.1551  71.3506 0001019  85.8395 177.0565 15.93575019  2513
STARLINK-35852          
1 66889U 25283M   25347.25002315 -.01245348  46313-3 -33681-2 0  9998
2 66889  53.1546  71.3454 0001006  80.7131 184.6084 15.93638918  2516
STARLINK-35885          
1 66890U 25283N   25347.25002315 -.01243436  46209-3 -33528-2 0  9990
2 66890  53.1549  71.3408 0000976  77.4937 190.1211 15.93696048  2514
STARLINK-35855          
1 66891U 25283P   25347.25002315 -.01254723  47005-3 -33720-2 0  9991
2 66891  53.1550  71.3360 0001020  81.1792 188.7927 15.93760326  2514
STARLINK-35883          
1 66892U 25283Q   25347.25002315 -.01250927  46772-3 -33521-2 0  9993
2 66892  53.1548  71.3308 0001015  79.5813 192.6558 15.93814388  2458
STARLINK-36033          
1 66893U 25283R   25347.25002315 -.01253450  46971-3 -33486-2 0  9999
2 66893  53.1547  71.3265 0001064  80.7322 193.6740 15.93872242  2517
STARLINK-35718          
1 66894U 25283S   25347.25002315 -.01275858  48548-3 -33950-2 0  9994
2 66894  53.1549  71.3210 0001046  82.3966 194.7458 15.93950805  2512
STARLINK-35971          
1 66895U 25283T   25347.25002315 -.01285372  49271-3 -33980-2 0  9994
2 66895  53.1545  71.3107 0000997  75.9538 205.7969 15.94075688  2519
STARLINK-35791          
1 66896U 25283U   25347.25002315 -.01275140  48529-3 -33819-2 0  9993
2 66896  53.1546  71.3153 0000829  82.8157 196.7643 15.94013316  2518
