CCSDS_OMM_VERS = 2.0
CREATION_DATE  = 
ORIGINATOR     = 

OBJECT_NAME    = STARLINK-35954
OBJECT_ID      = 2025-283H
CENTER_NAME    = EARTH
REF_FRAME      = TEME
TIME_SYSTEM    = UTC
MEAN_ELEMENT_THEORY = SGP/SGP4

EPOCH          = 2025-12-13T06:00:02.000160
MEAN_MOTION    = 15.93343674
ECCENTRICITY   = .00010086
INCLINATION    = 53.1550
RA_OF_ASC_NODE = 71.3698
ARG_OF_PERICENTER = 82.2584
MEAN_ANOMALY   = 171.5271

EPHEMERIS_TYPE = 0
CLASSIFICATION_TYPE = U
NORAD_CAT_ID   = 66885
ELEMENT_SET_NO = 999
REV_AT_EPOCH   = 251
BSTAR          = -.33327792E-2
MEAN_MOTION_DOT = -.1213568E-1
MEAN_MOTION_DDOT = .44056486E-3

CCSDS_OMM_VERS = 2.0
CREATION_DATE  = 
ORIGINATOR     = 

OBJECT_NAME    = STARLINK-35900
OBJECT_ID      = 2025-283J
CENTER_NAME    = EARTH
REF_FRAME      = TEME
TIME_SYSTEM    = UTC
MEAN_ELEMENT_THEORY = SGP/SGP4

EPOCH          = 2025-12-13T06:00:02.000160
MEAN_MOTION    = 15.93461624
ECCENTRICITY   = .00008956
INCLINATION    = 53.1551
RA_OF_ASC_NODE = 71.3594
ARG_OF_PERICENTER = 75.2160
MEAN_ANOMALY   = 183.4914

EPHEMERIS_TYPE = 0
CLASSIFICATION_TYPE = U
NORAD_CAT_ID   = 66886
ELEMENT_SET_NO = 999
REV_AT_EPOCH   = 251
BSTAR          = -.33250248E-2
MEAN_MOTION_DOT = -.1218235E-1
MEAN_MOTION_DDOT = .44416701E-3

CCSDS_OMM_VERS = 2.0
CREATION_DATE  = 
ORIGINATOR     = 

OBJECT_NAME    = STARLINK-35925
OBJECT_ID      = 2025-283K
CENTER_NAME    = EARTH
REF_FRAME      = TEME
TIME_SYSTEM    = UTC
MEAN_ELEMENT_THEORY = SGP/SGP4

EPOCH          = 2025-12-13T06:00:02.000160
MEAN_MOTION    = 15.93513295
ECCENTRICITY   = .0000968
INCLINATION    = 53.1552
RA_OF_ASC_NODE = 71.3553
ARG_OF_PERICENTER = 76.1301
MEAN_ANOMALY   = 184.6780

EPHEMERIS_TYPE = 0
CLASSIFICATION_TYPE = U
NORAD_CAT_ID   = 66887
ELEMENT_SET_NO = 999
REV_AT_EPOCH   = 251
BSTAR          = -.33159281E-2
MEAN_MOTION_DOT = -.121823E-1
MEAN_MOTION_DDOT = .44439035E-3

CCSDS_OMM_VERS = 2.0
CREATION_DATE  = 
ORIGINATOR     = 

OBJECT_NAME    = STARLINK-35919
OBJECT_ID      = 2025-283L
CENTER_NAME    = EARTH
REF_FRAME      = TEME
TIME_SYSTEM    = UTC
MEAN_ELEMENT_THEORY = SGP/SGP4

EPOCH          = 2025-12-13T06:00:02.000160
MEAN_MOTION    = 15.93575019
ECCENTRICITY   = .00010197
INCLINATION    = 53.1551
RA_OF_ASC_NODE = 71.3506
ARG_OF_PERICENTER = 85.8395
MEAN_ANOMALY   = 177.0565

EPHEMERIS_TYPE = 0
CLASSIFICATION_TYPE = U
NORAD_CAT_ID   = 66888
ELEMENT_SET_NO = 999
REV_AT_EPOCH   = 251
BSTAR          = -.33584252E-2
MEAN_MOTION_DOT = -.1237657E-1
MEAN_MOTION_DDOT = .45764476E-3

CCSDS_OMM_VERS = 2.0
CREATION_DATE  = 
ORIGINATOR     = 

OBJECT_NAME    = STARLINK-35852
OBJECT_ID      = 2025-283M
CENTER_NAME    = EARTH
REF_FRAME      = TEME
TIME_SYSTEM    = UTC
MEAN_ELEMENT_THEORY = SGP/SGP4

EPOCH          = 2025-12-13T06:00:02.000160
MEAN_MOTION    = 15.93638918
ECCENTRICITY   = .0001006
INCLINATION    = 53.1546
RA_OF_ASC_NODE = 71.3454
ARG_OF_PERICENTER = 80.7131
MEAN_ANOMALY   = 184.6084

EPHEMERIS_TYPE = 0
CLASSIFICATION_TYPE = U
NORAD_CAT_ID   = 66889
ELEMENT_SET_NO = 999
REV_AT_EPOCH   = 251
BSTAR          = -.33681388E-2
MEAN_MOTION_DOT = -.1245348E-1
MEAN_MOTION_DDOT = .46312535E-3

CCSDS_OMM_VERS = 2.0
CREATION_DATE  = 
ORIGINATOR     = 

OBJECT_NAME    = STARLINK-35885
OBJECT_ID      = 2025-283N
CENTER_NAME    = EARTH
REF_FRAME      = TEME
TIME_SYSTEM    = UTC
MEAN_ELEMENT_THEORY = SGP/SGP4

EPOCH          = 2025-12-13T06:00:02.000160
MEAN_MOTION    = 15.93696048
ECCENTRICITY   = .00009761
INCLINATION    = 53.1549
RA_OF_ASC_NODE = 71.3408
ARG_OF_PERICENTER = 77.4937
MEAN_ANOMALY   = 190.1211

EPHEMERIS_TYPE = 0
CLASSIFICATION_TYPE = U
NORAD_CAT_ID   = 66890
ELEMENT_SET_NO = 999
REV_AT_EPOCH   = 251
BSTAR          = -.33527666E-2
MEAN_MOTION_DOT = -.1243436E-1
MEAN_MOTION_DDOT = .46209227E-3

CCSDS_OMM_VERS = 2.0
CREATION_DATE  = 
ORIGINATOR     = 

OBJECT_NAME    = STARLINK-35855
OBJECT_ID      = 2025-283P
CENTER_NAME    = EARTH
REF_FRAME      = TEME
TIME_SYSTEM    = UTC
MEAN_ELEMENT_THEORY = SGP/SGP4

EPOCH          = 2025-12-13T06:00:02.000160
MEAN_MOTION    = 15.93760326
ECCENTRICITY   = .00010203
INCLINATION    = 53.1550
RA_OF_ASC_NODE = 71.3360
ARG_OF_PERICENTER = 81.1792
MEAN_ANOMALY   = 188.7927

EPHEMERIS_TYPE = 0
CLASSIFICATION_TYPE = U
NORAD_CAT_ID   = 66891
ELEMENT_SET_NO = 999
REV_AT_EPOCH   = 251
BSTAR          = -.33720424E-2
MEAN_MOTION_DOT = -.1254723E-1
MEAN_MOTION_DDOT = .47005395E-3

CCSDS_OMM_VERS = 2.0
CREATION_DATE  = 
ORIGINATOR     = 

OBJECT_NAME    = STARLINK-35883
OBJECT_ID      = 2025-283Q
CENTER_NAME    = EARTH
REF_FRAME      = TEME
TIME_SYSTEM    = UTC
MEAN_ELEMENT_THEORY = SGP/SGP4

EPOCH          = 2025-12-13T06:00:02.000160
MEAN_MOTION    = 15.93814388
ECCENTRICITY   = .00010159
INCLINATION    = 53.1548
RA_OF_ASC_NODE = 71.3308
ARG_OF_PERICENTER = 79.5813
MEAN_ANOMALY   = 192.6558

EPHEMERIS_TYPE = 0
CLASSIFICATION_TYPE = U
NORAD_CAT_ID   = 66892
ELEMENT_SET_NO = 999
REV_AT_EPOCH   = 245
BSTAR          = -.33521049E-2
MEAN_MOTION_DOT = -.1250927E-1
MEAN_MOTION_DDOT = .46771967E-3

CCSDS_OMM_VERS = 2.0
CREATION_DATE  = 
ORIGINATOR     = 

OBJECT_NAME    = STARLINK-36033
OBJECT_ID      = 2025-283R
CENTER_NAME    = EARTH
REF_FRAME      = TEME
TIME_SYSTEM    = UTC
MEAN_ELEMENT_THEORY = SGP/SGP4

EPOCH          = 2025-12-13T06:00:02.000160
MEAN_MOTION    = 15.93872242
ECCENTRICITY   = .00010644
INCLINATION    = 53.1547
RA_OF_ASC_NODE = 71.3265
ARG_OF_PERICENTER = 80.7322
MEAN_ANOMALY   = 193.6740

EPHEMERIS_TYPE = 0
CLASSIFICATION_TYPE = U
NORAD_CAT_ID   = 66893
ELEMENT_SET_NO = 999
REV_AT_EPOCH   = 251
BSTAR          = -.33486397E-2
MEAN_MOTION_DOT = -.125345E-1
MEAN_MOTION_DDOT = .4697077E-3

CCSDS_OMM_VERS = 2.0
CREATION_DATE  = 
ORIGINATOR     = 

OBJECT_NAME    = STARLINK-35718
OBJECT_ID      = 2025-283S
CENTER_NAME    = EARTH
REF_FRAME      = TEME
TIME_SYSTEM    = UTC
MEAN_ELEMENT_THEORY = SGP/SGP4

EPOCH          = 2025-12-13T06:00:02.000160
MEAN_MOTION    = 15.93950805
ECCENTRICITY   = .00010468
INCLINATION    = 53.1549
RA_OF_ASC_NODE = 71.3210
ARG_OF_PERICENTER = 82.3966
MEAN_ANOMALY   = 194.7458

EPHEMERIS_TYPE = 0
CLASSIFICATION_TYPE = U
NORAD_CAT_ID   = 66894
ELEMENT_SET_NO = 999
REV_AT_EPOCH   = 251
BSTAR          = -.33950312E-2
MEAN_MOTION_DOT = -.1275858E-1
MEAN_MOTION_DDOT = .48548232E-3

CCSDS_OMM_VERS = 2.0
CREATION_DATE  = 
ORIGINATOR     = 

OBJECT_NAME    = STARLINK-35971
OBJECT_ID      = 2025-283T
CENTER_NAME    = EARTH
REF_FRAME      = TEME
TIME_SYSTEM    = UTC
MEAN_ELEMENT_THEORY = SGP/SGP4

EPOCH          = 2025-12-13T06:00:02.000160
MEAN_MOTION    = 15.94075688
ECCENTRICITY   = .00009974
INCLINATION    = 53.1545
RA_OF_ASC_NODE = 71.3107
ARG_OF_PERICENTER = 75.9538
MEAN_ANOMALY   = 205.7969

EPHEMERIS_TYPE = 0
CLASSIFICATION_TYPE = U
NORAD_CAT_ID   = 66895
ELEMENT_SET_NO = 999
REV_AT_EPOCH   = 251
BSTAR          = -.33980441E-2
MEAN_MOTION_DOT = -.1285372E-1
MEAN_MOTION_DDOT = .49270509E-3

CCSDS_OMM_VERS = 2.0
CREATION_DATE  = 
ORIGINATOR     = 

OBJECT_NAME    = STARLINK-35791
OBJECT_ID      = 2025-283U
CENTER_NAME    = EARTH
REF_FRAME      = TEME
TIME_SYSTEM    = UTC
MEAN_ELEMENT_THEORY = SGP/SGP4

EPOCH          = 2025-12-13T06:00:02.000160
MEAN_MOTION    = 15.94013316
ECCENTRICITY   = .00008293
INCLINATION    = 53.1546
RA_OF_ASC_NODE = 71.3153
ARG_OF_PERICENTER = 82.8157
MEAN_ANOMALY   = 196.7643

EPHEMERIS_TYPE = 0
CLASSIFICATION_TYPE = U
NORAD_CAT_ID   = 66896
ELEMENT_SET_NO = 999
REV_AT_EPOCH   = 251
BSTAR          = -.33819204E-2
MEAN_MOTION_DOT = -.127514E-1
MEAN_MOTION_DDOT = .48528557E-3

